[{"OBJECT_NAME":"DONGPO 10","OBJECT_ID":"2022-167H","EPOCH":"2026-03-09T22:44:56.137344","MEAN_MOTION":15.322785,"ECCENTRICITY":0.00061655,"INCLINATION":97.685,"RA_OF_ASC_NODE":235.0962,"ARG_OF_PERICENTER":106.9526,"MEAN_ANOMALY":253.2392,"EPHEMERIS_TYPE":0,"CLASSIFICATION_TYPE":"U","NORAD_CAT_ID":54689,"ELEMENT_SET_NO":999,"REV_AT_EPOCH":18015,"BSTAR":0.00049390523,"MEAN_MOTION_DOT":0.00015333,"MEAN_MOTION_DDOT":0},{"OBJECT_NAME":"STARLINK-32158","OBJECT_ID":"2024-131N","EPOCH":"2026-03-09T23:15:48.984480","MEAN_MOTION":15.30193232,"ECCENTRICITY":0.00011615,"INCLINATION":53.161,"RA_OF_ASC_NODE":50.9693,"ARG_OF_PERICENTER":79.2155,"MEAN_ANOMALY":280.8976,"EPHEMERIS_TYPE":0,"CLASSIFICATION_TYPE":"U","NORAD_CAT_ID":60267,"ELEMENT_SET_NO":999,"REV_AT_EPOCH":9166,"BSTAR":5.143326e-5,"MEAN_MOTION_DOT":1.164e-5,"MEAN_MOTION_DDOT":0}]
